CCSDS_OMM_VERS = 2.0
CREATION_DATE  = 
ORIGINATOR     = 

OBJECT_NAME    = COSMOS 2058
OBJECT_ID      = 1990-010A
CENTER_NAME    = EARTH
REF_FRAME      = TEME
TIME_SYSTEM    = UTC
MEAN_ELEMENT_THEORY = SGP/SGP4

EPOCH          = 2026-03-08T22:04:34.409280
MEAN_MOTION    = 15.11314076
ECCENTRICITY   = .00094379
INCLINATION    = 82.4670
RA_OF_ASC_NODE = 48.1864
ARG_OF_PERICENTER = 346.6633
MEAN_ANOMALY   = 13.4346

EPHEMERIS_TYPE = 0
CLASSIFICATION_TYPE = U
NORAD_CAT_ID   = 20465
ELEMENT_SET_NO = 999
REV_AT_EPOCH   = 94212
BSTAR          = .34047876E-3
MEAN_MOTION_DOT = .5768E-4
MEAN_MOTION_DDOT = 0

CCSDS_OMM_VERS = 2.0
CREATION_DATE  = 
ORIGINATOR     = 

OBJECT_NAME    = SL-14 R/B
OBJECT_ID      = 1990-010B
CENTER_NAME    = EARTH
REF_FRAME      = TEME
TIME_SYSTEM    = UTC
MEAN_ELEMENT_THEORY = SGP/SGP4

EPOCH          = 2026-03-08T22:40:46.737696
MEAN_MOTION    = 14.83568122
ECCENTRICITY   = .00185862
INCLINATION    = 82.4988
RA_OF_ASC_NODE = 268.0886
ARG_OF_PERICENTER = 304.9683
MEAN_ANOMALY   = 54.9786

EPHEMERIS_TYPE = 0
CLASSIFICATION_TYPE = U
NORAD_CAT_ID   = 20466
ELEMENT_SET_NO = 999
REV_AT_EPOCH   = 92837
BSTAR          = .60858512E-4
MEAN_MOTION_DOT = .526E-5
MEAN_MOTION_DDOT = 0

CCSDS_OMM_VERS = 2.0
CREATION_DATE  = 
ORIGINATOR     = 

OBJECT_NAME    = SL-14 R/B
OBJECT_ID      = 1990-018B
CENTER_NAME    = EARTH
REF_FRAME      = TEME
TIME_SYSTEM    = UTC
MEAN_ELEMENT_THEORY = SGP/SGP4

EPOCH          = 2026-03-08T21:28:13.751040
MEAN_MOTION    = 14.82143989
ECCENTRICITY   = .00176556
INCLINATION    = 82.5201
RA_OF_ASC_NODE = 223.8327
ARG_OF_PERICENTER = 94.4652
MEAN_ANOMALY   = 265.8580

EPHEMERIS_TYPE = 0
CLASSIFICATION_TYPE = U
NORAD_CAT_ID   = 20511
ELEMENT_SET_NO = 999
REV_AT_EPOCH   = 92246
BSTAR          = .84978284E-4
MEAN_MOTION_DOT = .702E-5
MEAN_MOTION_DDOT = 0

CCSDS_OMM_VERS = 2.0
CREATION_DATE  = 
ORIGINATOR     = 

OBJECT_NAME    = HST
OBJECT_ID      = 1990-037B
CENTER_NAME    = EARTH
REF_FRAME      = TEME
TIME_SYSTEM    = UTC
MEAN_ELEMENT_THEORY = SGP/SGP4

EPOCH          = 2026-03-08T01:12:43.887744
MEAN_MOTION    = 15.29454135
ECCENTRICITY   = .00017979
INCLINATION    = 28.4714
RA_OF_ASC_NODE = 51.1800
ARG_OF_PERICENTER = 110.1029
MEAN_ANOMALY   = 249.9760

EPHEMERIS_TYPE = 0
CLASSIFICATION_TYPE = U
NORAD_CAT_ID   = 20580
ELEMENT_SET_NO = 999
REV_AT_EPOCH   = 77306
BSTAR          = .36739108E-3
MEAN_MOTION_DOT = .11037E-3
MEAN_MOTION_DDOT = 0

CCSDS_OMM_VERS = 2.0
CREATION_DATE  = 
ORIGINATOR     = 

OBJECT_NAME    = SL-16 R/B
OBJECT_ID      = 1990-046B
CENTER_NAME    = EARTH
REF_FRAME      = TEME
TIME_SYSTEM    = UTC
MEAN_ELEMENT_THEORY = SGP/SGP4

EPOCH          = 2026-03-08T22:04:11.686080
MEAN_MOTION    = 14.15012682
ECCENTRICITY   = .00162354
INCLINATION    = 70.9989
RA_OF_ASC_NODE = 299.5324
ARG_OF_PERICENTER = 300.6945
MEAN_ANOMALY   = 59.2577

EPHEMERIS_TYPE = 0
CLASSIFICATION_TYPE = U
NORAD_CAT_ID   = 20625
ELEMENT_SET_NO = 999
REV_AT_EPOCH   = 84828
BSTAR          = -.10050682E-3
MEAN_MOTION_DOT = -.243E-5
MEAN_MOTION_DDOT = 0

CCSDS_OMM_VERS = 2.0
CREATION_DATE  = 
ORIGINATOR     = 

OBJECT_NAME    = COSMOS 2084
OBJECT_ID      = 1990-055A
CENTER_NAME    = EARTH
REF_FRAME      = TEME
TIME_SYSTEM    = UTC
MEAN_ELEMENT_THEORY = SGP/SGP4

EPOCH          = 2026-03-08T22:11:58.958016
MEAN_MOTION    = 15.05646918
ECCENTRICITY   = .00171582
INCLINATION    = 62.7921
RA_OF_ASC_NODE = 338.1864
ARG_OF_PERICENTER = 189.8210
MEAN_ANOMALY   = 170.2558

EPHEMERIS_TYPE = 0
CLASSIFICATION_TYPE = U
NORAD_CAT_ID   = 20663
ELEMENT_SET_NO = 999
REV_AT_EPOCH   = 93620
BSTAR          = .26319088E-3
MEAN_MOTION_DOT = .3629E-4
MEAN_MOTION_DDOT = 0

CCSDS_OMM_VERS = 2.0
CREATION_DATE  = 
ORIGINATOR     = 

OBJECT_NAME    = SL-6 R/B(2)
OBJECT_ID      = 1990-055D
CENTER_NAME    = EARTH
REF_FRAME      = TEME
TIME_SYSTEM    = UTC
MEAN_ELEMENT_THEORY = SGP/SGP4

EPOCH          = 2026-03-08T23:21:14.661504
MEAN_MOTION    = 15.03590689
ECCENTRICITY   = .00246323
INCLINATION    = 62.7824
RA_OF_ASC_NODE = 256.2874
ARG_OF_PERICENTER = 346.9013
MEAN_ANOMALY   = 13.1443

EPHEMERIS_TYPE = 0
CLASSIFICATION_TYPE = U
NORAD_CAT_ID   = 20666
ELEMENT_SET_NO = 999
REV_AT_EPOCH   = 93808
BSTAR          = .21956974E-3
MEAN_MOTION_DOT = .2834E-4
MEAN_MOTION_DDOT = 0

CCSDS_OMM_VERS = 2.0
CREATION_DATE  = 
ORIGINATOR     = 

OBJECT_NAME    = SL-8 R/B
OBJECT_ID      = 1990-078B
CENTER_NAME    = EARTH
REF_FRAME      = TEME
TIME_SYSTEM    = UTC
MEAN_ELEMENT_THEORY = SGP/SGP4

EPOCH          = 2026-03-08T23:18:02.253024
MEAN_MOTION    = 14.89033023
ECCENTRICITY   = .03624871
INCLINATION    = 82.9002
RA_OF_ASC_NODE = 251.9572
ARG_OF_PERICENTER = 16.4230
MEAN_ANOMALY   = 344.8370

EPHEMERIS_TYPE = 0
CLASSIFICATION_TYPE = U
NORAD_CAT_ID   = 20775
ELEMENT_SET_NO = 999
REV_AT_EPOCH   = 80919
BSTAR          = .59250754E-3
MEAN_MOTION_DOT = .20132E-3
MEAN_MOTION_DDOT = 0

CCSDS_OMM_VERS = 2.0
CREATION_DATE  = 
ORIGINATOR     = 

OBJECT_NAME    = SL-8 R/B
OBJECT_ID      = 1991-006B
CENTER_NAME    = EARTH
REF_FRAME      = TEME
TIME_SYSTEM    = UTC
MEAN_ELEMENT_THEORY = SGP/SGP4

EPOCH          = 2026-03-08T20:04:53.679360
MEAN_MOTION    = 13.77494101
ECCENTRICITY   = .00231337
INCLINATION    = 82.9466
RA_OF_ASC_NODE = 170.6800
ARG_OF_PERICENTER = 40.6379
MEAN_ANOMALY   = 76.9916

EPHEMERIS_TYPE = 0
CLASSIFICATION_TYPE = U
NORAD_CAT_ID   = 21088
ELEMENT_SET_NO = 999
REV_AT_EPOCH   = 76395
BSTAR          = .69378421E-4
MEAN_MOTION_DOT = .85E-6
MEAN_MOTION_DDOT = 0

CCSDS_OMM_VERS = 2.0
CREATION_DATE  = 
ORIGINATOR     = 

OBJECT_NAME    = OKEAN-3
OBJECT_ID      = 1991-039A
CENTER_NAME    = EARTH
REF_FRAME      = TEME
TIME_SYSTEM    = UTC
MEAN_ELEMENT_THEORY = SGP/SGP4

EPOCH          = 2026-03-08T19:32:59.133120
MEAN_MOTION    = 15.04797123
ECCENTRICITY   = .00140266
INCLINATION    = 82.5188
RA_OF_ASC_NODE = 337.6912
ARG_OF_PERICENTER = 341.5599
MEAN_ANOMALY   = 18.5118

EPHEMERIS_TYPE = 0
CLASSIFICATION_TYPE = U
NORAD_CAT_ID   = 21397
ELEMENT_SET_NO = 999
REV_AT_EPOCH   = 86490
BSTAR          = .34538405E-3
MEAN_MOTION_DOT = .491E-4
MEAN_MOTION_DDOT = 0

CCSDS_OMM_VERS = 2.0
CREATION_DATE  = 
ORIGINATOR     = 

OBJECT_NAME    = COSMOS 2151
OBJECT_ID      = 1991-042A
CENTER_NAME    = EARTH
REF_FRAME      = TEME
TIME_SYSTEM    = UTC
MEAN_ELEMENT_THEORY = SGP/SGP4

EPOCH          = 2026-03-08T22:47:25.808928
MEAN_MOTION    = 15.00101670
ECCENTRICITY   = .00140142
INCLINATION    = 82.4931
RA_OF_ASC_NODE = 84.3903
ARG_OF_PERICENTER = 66.1015
MEAN_ANOMALY   = 294.1675

EPHEMERIS_TYPE = 0
CLASSIFICATION_TYPE = U
NORAD_CAT_ID   = 21422
ELEMENT_SET_NO = 999
REV_AT_EPOCH   = 86308
BSTAR          = .1643439E-3
MEAN_MOTION_DOT = .2079E-4
MEAN_MOTION_DDOT = 0

CCSDS_OMM_VERS = 2.0
CREATION_DATE  = 
ORIGINATOR     = 

OBJECT_NAME    = SL-14 R/B
OBJECT_ID      = 1991-042B
CENTER_NAME    = EARTH
REF_FRAME      = TEME
TIME_SYSTEM    = UTC
MEAN_ELEMENT_THEORY = SGP/SGP4

EPOCH          = 2026-03-08T21:07:03.875808
MEAN_MOTION    = 14.81828681
ECCENTRICITY   = .00157621
INCLINATION    = 82.4922
RA_OF_ASC_NODE = 220.9416
ARG_OF_PERICENTER = 241.5281
MEAN_ANOMALY   = 118.4346

EPHEMERIS_TYPE = 0
CLASSIFICATION_TYPE = U
NORAD_CAT_ID   = 21423
ELEMENT_SET_NO = 999
REV_AT_EPOCH   = 85295
BSTAR          = .81476968E-4
MEAN_MOTION_DOT = .668E-5
MEAN_MOTION_DDOT = 0

