COSMOS 2058             
1 20465U 90010A   26067.91984270  .00005768  00000+0  34048-3 0  9995
2 20465  82.4670  48.1864 0009437 346.6633  13.4346 15.11314076942129
SL-14 R/B               
1 20466U 90010B   26067.94498539  .00000526  00000+0  60859-4 0  9994
2 20466  82.4988 268.0886 0018586 304.9683  54.9786 14.83568122928376
SL-14 R/B               
1 20511U 90018B   26067.89460360  .00000702  00000+0  84978-4 0  9992
2 20511  82.5201 223.8327 0017655  94.4652 265.8580 14.82143989922466
HST                     
1 20580U 90037B   26067.05050796  .00011037  00000+0  36739-3 0  9999
2 20580  28.4714  51.1800 0001797 110.1029 249.9760 15.29454135773065
SL-16 R/B               
1 20625U 90046B   26067.91957970 -.00000243  00000+0 -10051-3 0  9992
2 20625  70.9989 299.5324 0016235 300.6945  59.2577 14.15012682848282
COSMOS 2084             
1 20663U 90055A   26067.92498794  .00003629  00000+0  26319-3 0  9992
2 20663  62.7921 338.1864 0017158 189.8210 170.2558 15.05646918936203
SL-6 R/B(2)             
1 20666U 90055D   26067.97308636  .00002834  00000+0  21957-3 0  9995
2 20666  62.7824 256.2874 0024632 346.9013  13.1443 15.03590689938088
SL-8 R/B                
1 20775U 90078B   26067.97085941  .00020132  00000+0  59251-3 0  9991
2 20775  82.9002 251.9572 0362487  16.4230 344.8370 14.89033023809190
SL-8 R/B                
1 21088U 91006B   26067.83673240  .00000085  00000+0  69378-4 0  9998
2 21088  82.9466 170.6800 0023133  40.6379  76.9916 13.77494101763954
OKEAN-3                 
1 21397U 91039A   26067.81457330  .00004910  00000+0  34538-3 0  9995
2 21397  82.5188 337.6912 0014026 341.5599  18.5118 15.04797123864906
COSMOS 2151             
1 21422U 91042A   26067.94960427  .00002079  00000+0  16434-3 0  9997
2 21422  82.4931  84.3903 0014014  66.1015 294.1675 15.00101670863086
SL-14 R/B               
1 21423U 91042B   26067.87990597  .00000668  00000+0  81477-4 0  9993
2 21423  82.4922 220.9416 0015762 241.5281 118.4346 14.81828681852952
